{
"type": "FeatureCollection",
"name": "pdx_crime_events",
"crs": { "type": "name", "properties": { "name": "urn:ogc:def:crs:OGC:1.3:CRS84" } },
"features": [
{ "type": "Feature", "properties": { "FID": 0, "CATEGORY": "OTHER", "CALL_GROUP": "DISORDER", "final_case": "PARTY", "CASE_DESC": "PARTY DISTURBANCE", "occ_date": 1470182400000, "x_coordina": 7661538, "y_coordina": 689217, "census_tra": 2802 }, "geometry": { "type": "Point", "coordinates": [ -122.609920813041398, 45.537775325334366 ] } },
{ "type": "Feature", "properties": { "FID": 1, "CATEGORY": "OTHER", "CALL_GROUP": "DISORDER", "final_case": "PARTY", "CASE_DESC": "PARTY DISTURBANCE", "occ_date": 1470355200000, "x_coordina": 7662605, "y_coordina": 667163, "census_tra": 402 }, "geometry": { "type": "Point", "coordinates": [ -122.603517278578295, 45.477384985738105 ] } },
{ "type": "Feature", "properties": { "FID": 2, "CATEGORY": "OTHER", "CALL_GROUP": "DISORDER", "final_case": "PARTY", "CASE_DESC": "PARTY DISTURBANCE", "occ_date": 1470441600000, "x_coordina": 7636301, "y_coordina": 660939, "census_tra": 6200 }, "geometry": { "type": "Point", "coordinates": [ -122.705365177976759, 45.458396750064544 ] } },
{ "type": "Feature", "properties": { "FID": 3, "CATEGORY": "OTHER", "CALL_GROUP": "DISORDER", "final_case": "PARTY", "CASE_DESC": "PARTY DISTURBANCE", "occ_date": 1471046400000, "x_coordina": 7665894, "y_coordina": 692913, "census_tra": 2901 }, "geometry": { "type": "Point", "coordinates": [ -122.593299921638163, 45.548219504946459 ] } },
{ "type": "Feature", "properties": { "FID": 4, "CATEGORY": "OTHER", "CALL_GROUP": "DISORDER", "final_case": "PARTY", "CASE_DESC": "PARTY DISTURBANCE", "occ_date": 1471046400000, "x_coordina": 7678549, "y_coordina": 695203, "census_tra": 7900 }, "geometry": { "type": "Point", "coordinates": [ -122.544143729578209, 45.555386756145062 ] } },
{ "type": "Feature", "properties": { "FID": 5, "CATEGORY": "OTHER", "CALL_GROUP": "DISORDER", "final_case": "PARTY", "CASE_DESC": "PARTY DISTURBANCE", "occ_date": 1471046400000, "x_coordina": 7682195, "y_coordina": 661968, "census_tra": 8901 }, "geometry": { "type": "Point", "coordinates": [ -122.526660033341358, 45.464514469852439 ] } },
{ "type": "Feature", "properties": { "FID": 6, "CATEGORY": "OTHER", "CALL_GROUP": "DISORDER", "final_case": "PARTY", "CASE_DESC": "PARTY DISTURBANCE", "occ_date": 1471132800000, "x_coordina": 7684546, "y_coordina": 674641, "census_tra": 9101 }, "geometry": { "type": "Point", "coordinates": [ -122.518733521685022, 45.499423306024703 ] } },
{ "type": "Feature", "properties": { "FID": 7, "CATEGORY": "OTHER", "CALL_GROUP": "DISORDER", "final_case": "PARTY", "CASE_DESC": "PARTY DISTURBANCE", "occ_date": 1471564800000, "x_coordina": 7640523, "y_coordina": 660001, "census_tra": 6300 }, "geometry": { "type": "Point", "coordinates": [ -122.688817863496297, 45.456139896741192 ] } },
{ "type": "Feature", "properties": { "FID": 8, "CATEGORY": "OTHER", "CALL_GROUP": "DISORDER", "final_case": "PARTY", "CASE_DESC": "PARTY DISTURBANCE", "occ_date": 1472169600000, "x_coordina": 7646876, "y_coordina": 694099, "census_tra": 3402 }, "geometry": { "type": "Point", "coordinates": [ -122.667633198040051, 45.55009586250182 ] } },
{ "type": "Feature", "properties": { "FID": 9, "CATEGORY": "OTHER", "CALL_GROUP": "DISORDER", "final_case": "PARTY", "CASE_DESC": "PARTY DISTURBANCE", "occ_date": 1471046400000, "x_coordina": 7639102, "y_coordina": 685953, "census_tra": 4700 }, "geometry": { "type": "Point", "coordinates": [ -122.697103739898253, 45.527186409547816 ] } },
{ "type": "Feature", "properties": { "FID": 10, "CATEGORY": "OTHER", "CALL_GROUP": "DISORDER", "final_case": "PARTY", "CASE_DESC": "PARTY DISTURBANCE", "occ_date": 1471046400000, "x_coordina": 7641180, "y_coordina": 695718, "census_tra": 3502 }, "geometry": { "type": "Point", "coordinates": [ -122.690031103523864, 45.554113342211238 ] } },
{ "type": "Feature", "properties": { "FID": 11, "CATEGORY": "OTHER", "CALL_GROUP": "DISORDER", "final_case": "PARTY", "CASE_DESC": "PARTY DISTURBANCE", "occ_date": 1471046400000, "x_coordina": 7676556, "y_coordina": 696045, "census_tra": 7900 }, "geometry": { "type": "Point", "coordinates": [ -122.552005256215338, 45.557556771586292 ] } },
{ "type": "Feature", "properties": { "FID": 12, "CATEGORY": "OTHER", "CALL_GROUP": "DISORDER", "final_case": "PARTY", "CASE_DESC": "PARTY DISTURBANCE", "occ_date": 1471132800000, "x_coordina": 7641527, "y_coordina": 679007, "census_tra": 5800 }, "geometry": { "type": "Point", "coordinates": [ -122.686911285877443, 45.508323206720483 ] } },
{ "type": "Feature", "properties": { "FID": 13, "CATEGORY": "OTHER", "CALL_GROUP": "DISORDER", "final_case": "PARTY", "CASE_DESC": "PARTY DISTURBANCE", "occ_date": 1472256000000, "x_coordina": 7632742, "y_coordina": 703935, "census_tra": 4002 }, "geometry": { "type": "Point", "coordinates": [ -122.723842209467264, 45.576009123249762 ] } },
{ "type": "Feature", "properties": { "FID": 14, "CATEGORY": "OTHER", "CALL_GROUP": "DISORDER", "final_case": "PARTY", "CASE_DESC": "PARTY DISTURBANCE", "occ_date": 1472256000000, "x_coordina": 7665843, "y_coordina": 681042, "census_tra": 1601 }, "geometry": { "type": "Point", "coordinates": [ -122.592299022718208, 45.51566859836749 ] } },
{ "type": "Feature", "properties": { "FID": 15, "CATEGORY": "OTHER", "CALL_GROUP": "DISORDER", "final_case": "PARTY", "CASE_DESC": "PARTY DISTURBANCE", "occ_date": 1470268800000, "x_coordina": 7650813, "y_coordina": 677051, "census_tra": 1000 }, "geometry": { "type": "Point", "coordinates": [ -122.650499082108482, 45.503644023795353 ] } },
{ "type": "Feature", "properties": { "FID": 16, "CATEGORY": "OTHER", "CALL_GROUP": "DISORDER", "final_case": "PARTY", "CASE_DESC": "PARTY DISTURBANCE", "occ_date": 1470355200000, "x_coordina": 7639866, "y_coordina": 665918, "census_tra": 6002 }, "geometry": { "type": "Point", "coordinates": [ -122.69200289671808, 45.472313751027357 ] } },
{ "type": "Feature", "properties": { "FID": 17, "CATEGORY": "OTHER", "CALL_GROUP": "DISORDER", "final_case": "PARTY", "CASE_DESC": "PARTY DISTURBANCE", "occ_date": 1470787200000, "x_coordina": 7656875, "y_coordina": 673785, "census_tra": 902 }, "geometry": { "type": "Point", "coordinates": [ -122.626527871874501, 45.495129566332679 ] } },
{ "type": "Feature", "properties": { "FID": 18, "CATEGORY": "OTHER", "CALL_GROUP": "DISORDER", "final_case": "PARTY", "CASE_DESC": "PARTY DISTURBANCE", "occ_date": 1471564800000, "x_coordina": 7631871, "y_coordina": 705189, "census_tra": 4002 }, "geometry": { "type": "Point", "coordinates": [ -122.727377486171733, 45.579381278727482 ] } },
{ "type": "Feature", "properties": { "FID": 19, "CATEGORY": "OTHER", "CALL_GROUP": "DISORDER", "final_case": "PARTY", "CASE_DESC": "PARTY DISTURBANCE", "occ_date": 1471564800000, "x_coordina": 7639173, "y_coordina": 708232, "census_tra": 3901 }, "geometry": { "type": "Point", "coordinates": [ -122.699192883339634, 45.588272522709616 ] } },
{ "type": "Feature", "properties": { "FID": 20, "CATEGORY": "OTHER", "CALL_GROUP": "DISORDER", "final_case": "PARTY", "CASE_DESC": "PARTY DISTURBANCE", "occ_date": 1472256000000, "x_coordina": 7660657, "y_coordina": 685042, "census_tra": 1801 }, "geometry": { "type": "Point", "coordinates": [ -122.612931856261952, 45.526265457484136 ] } },
{ "type": "Feature", "properties": { "FID": 21, "CATEGORY": "OTHER", "CALL_GROUP": "DISORDER", "final_case": "PARTY", "CASE_DESC": "PARTY DISTURBANCE", "occ_date": 1472342400000, "x_coordina": 7657126, "y_coordina": 672876, "census_tra": 902 }, "geometry": { "type": "Point", "coordinates": [ -122.625456111147386, 45.492655431418619 ] } },
{ "type": "Feature", "properties": { "FID": 22, "CATEGORY": "OTHER", "CALL_GROUP": "DISORDER", "final_case": "PARTY", "CASE_DESC": "PARTY DISTURBANCE", "occ_date": 1472515200000, "x_coordina": 7624529, "y_coordina": 708181, "census_tra": 4200 }, "geometry": { "type": "Point", "coordinates": [ -122.75636748300596, 45.587025364409243 ] } },
{ "type": "Feature", "properties": { "FID": 23, "CATEGORY": "OTHER", "CALL_GROUP": "DISORDER", "final_case": "PARTY", "CASE_DESC": "PARTY DISTURBANCE", "occ_date": 1470009600000, "x_coordina": 7678470, "y_coordina": 670170, "census_tra": 8500 }, "geometry": { "type": "Point", "coordinates": [ -122.541982258850751, 45.486745823057312 ] } },
{ "type": "Feature", "properties": { "FID": 24, "CATEGORY": "OTHER", "CALL_GROUP": "DISORDER", "final_case": "PARTY", "CASE_DESC": "PARTY DISTURBANCE", "occ_date": 1470441600000, "x_coordina": 7656487, "y_coordina": 663021, "census_tra": 302 }, "geometry": { "type": "Point", "coordinates": [ -122.626935483156274, 45.465589286814449 ] } },
{ "type": "Feature", "properties": { "FID": 25, "CATEGORY": "OTHER", "CALL_GROUP": "DISORDER", "final_case": "PARTY", "CASE_DESC": "PARTY DISTURBANCE", "occ_date": 1470441600000, "x_coordina": 7668235, "y_coordina": 695283, "census_tra": 2901 }, "geometry": { "type": "Point", "coordinates": [ -122.584403642441785, 45.554883402577225 ] } },
{ "type": "Feature", "properties": { "FID": 26, "CATEGORY": "OTHER", "CALL_GROUP": "DISORDER", "final_case": "PARTY", "CASE_DESC": "PARTY DISTURBANCE", "occ_date": 1470700800000, "x_coordina": 7651448, "y_coordina": 662335, "census_tra": 200 }, "geometry": { "type": "Point", "coordinates": [ -122.646498407786297, 45.463342963673362 ] } },
{ "type": "Feature", "properties": { "FID": 27, "CATEGORY": "OTHER", "CALL_GROUP": "DISORDER", "final_case": "PARTY", "CASE_DESC": "PARTY DISTURBANCE", "occ_date": 1471392000000, "x_coordina": 7664217, "y_coordina": 689501, "census_tra": 2801 }, "geometry": { "type": "Point", "coordinates": [ -122.599497727394507, 45.538745369784493 ] } },
{ "type": "Feature", "properties": { "FID": 28, "CATEGORY": "OTHER", "CALL_GROUP": "DISORDER", "final_case": "PARTY", "CASE_DESC": "PARTY DISTURBANCE", "occ_date": 1471478400000, "x_coordina": 7640607, "y_coordina": 707349, "census_tra": 3901 }, "geometry": { "type": "Point", "coordinates": [ -122.693499815101305, 45.585958586859135 ] } },
{ "type": "Feature", "properties": { "FID": 29, "CATEGORY": "OTHER", "CALL_GROUP": "DISORDER", "final_case": "PARTY", "CASE_DESC": "PARTY DISTURBANCE", "occ_date": 1471564800000, "x_coordina": 7646876, "y_coordina": 694099, "census_tra": 3402 }, "geometry": { "type": "Point", "coordinates": [ -122.667633198040051, 45.55009586250182 ] } },
{ "type": "Feature", "properties": { "FID": 30, "CATEGORY": "OTHER", "CALL_GROUP": "DISORDER", "final_case": "PARTY", "CASE_DESC": "PARTY DISTURBANCE", "occ_date": 1471651200000, "x_coordina": 7644726, "y_coordina": 668997, "census_tra": 5900 }, "geometry": { "type": "Point", "coordinates": [ -122.673387172533779, 45.481115547825517 ] } },
{ "type": "Feature", "properties": { "FID": 31, "CATEGORY": "OTHER", "CALL_GROUP": "DISORDER", "final_case": "PARTY", "CASE_DESC": "PARTY DISTURBANCE", "occ_date": 1472169600000, "x_coordina": 7646491, "y_coordina": 695999, "census_tra": 3401 }, "geometry": { "type": "Point", "coordinates": [ -122.66933465967594, 45.555276684445246 ] } },
{ "type": "Feature", "properties": { "FID": 32, "CATEGORY": "OTHER", "CALL_GROUP": "DISORDER", "final_case": "PARTY", "CASE_DESC": "PARTY DISTURBANCE", "occ_date": 1472169600000, "x_coordina": 7650996, "y_coordina": 679743, "census_tra": 1102 }, "geometry": { "type": "Point", "coordinates": [ -122.65006496006049, 45.511038078339148 ] } },
{ "type": "Feature", "properties": { "FID": 33, "CATEGORY": "OTHER", "CALL_GROUP": "DISORDER", "final_case": "PARTY", "CASE_DESC": "PARTY DISTURBANCE", "occ_date": 1472169600000, "x_coordina": 7651129, "y_coordina": 698345, "census_tra": 3301 }, "geometry": { "type": "Point", "coordinates": [ -122.651478499991157, 45.562048743842432 ] } },
{ "type": "Feature", "properties": { "FID": 34, "CATEGORY": "OTHER", "CALL_GROUP": "DISORDER", "final_case": "PARTY", "CASE_DESC": "PARTY DISTURBANCE", "occ_date": 1472256000000, "x_coordina": 7633637, "y_coordina": 704849, "census_tra": 4002 }, "geometry": { "type": "Point", "coordinates": [ -122.720446322877962, 45.578582446320823 ] } },
{ "type": "Feature", "properties": { "FID": 35, "CATEGORY": "OTHER", "CALL_GROUP": "DISORDER", "final_case": "PARTY", "CASE_DESC": "PARTY DISTURBANCE", "occ_date": 1472256000000, "x_coordina": 7658489, "y_coordina": 670093, "census_tra": 401 }, "geometry": { "type": "Point", "coordinates": [ -122.619858014337865, 45.485123336573828 ] } },
{ "type": "Feature", "properties": { "FID": 36, "CATEGORY": "OTHER", "CALL_GROUP": "DISORDER", "final_case": "PARTY", "CASE_DESC": "PARTY DISTURBANCE", "occ_date": 1472256000000, "x_coordina": 7666224, "y_coordina": 675380, "census_tra": 701 }, "geometry": { "type": "Point", "coordinates": [ -122.59024173982047, 45.50017175701749 ] } },
{ "type": "Feature", "properties": { "FID": 37, "CATEGORY": "OTHER", "CALL_GROUP": "DISORDER", "final_case": "PARTY", "CASE_DESC": "PARTY DISTURBANCE", "occ_date": 1472342400000, "x_coordina": 7645125, "y_coordina": 694413, "census_tra": 3402 }, "geometry": { "type": "Point", "coordinates": [ -122.674498873669208, 45.550827707433946 ] } }
]
}
